IRIDIUM 106             
1 41917U 17003A   25033.69243589  .00000640  00000+0  22142-3 0  9995
2 41917  86.3972 297.2565 0002497  85.8726 274.2755 14.34217356421615
IRIDIUM 103             
1 41918U 17003B   25033.81928566  .00000653  00000+0  22627-3 0  9997
2 41918  86.3973 297.1048 0001992 101.3691 258.7729 14.34218298421654
IRIDIUM 109             
1 41919U 17003C   25033.68608730  .00000279  00000+0  92549-4 0  9996
2 41919  86.3974 297.2116 0001831  84.5544 275.5861 14.34214152421608
IRIDIUM 102             
1 41920U 17003D   25033.72414682  .00000719  00000+0  24962-3 0  9996
2 41920  86.3971 297.1300 0002150  82.5393 277.6047 14.34216848421698
IRIDIUM 105             
1 41921U 17003E   25033.48556111  .00000627  00000+0  21667-3 0  9991
2 41921  86.3939 265.6460 0002017  90.0396 270.1031 14.34225263423514
IRIDIUM 104             
1 41922U 17003F   25033.59729193  .00000789  00000+0  27469-3 0  9991
2 41922  86.3974 297.2177 0001641  89.9025 270.2359 14.34215649421663
IRIDIUM 114             
1 41923U 17003G   25033.67340359  .00000646  00000+0  22369-3 0  9990
2 41923  86.3973 297.1713 0002074  91.2620 268.8814 14.34219213421655
IRIDIUM 108             
1 41924U 17003H   25033.49238979  .00000627  00000+0  21668-3 0  9995
2 41924  86.3931 265.5529 0002358  83.5926 276.5538 14.34214519423488
